STARLINK-5328           
1 55657U 23021AF  26068.64361641 -.00000433  00000+0 -28470-4 0  9995
2 55657  70.0005 164.7339 0003409 271.1096  88.9673 14.98333056169275
HYPSO-2                 
1 60531U 24149BR  26068.64186663  .00003981  00000+0  33980-3 0  9993
2 60531  97.6894 146.3679 0001390  74.8032 285.3344 14.98259029 85149
